IRIDIUM 112             
1 41925U 17003J   25244.85002404  .00000110  00000+0  32074-4 0  9993
2 41925  86.3989 208.7300 0002169  85.0339 275.1104 14.34218700451945
IRIDIUM 111             
1 41926U 17003K   25244.97687772 -.00000044  00000+0 -22631-4 0  9990
2 41926  86.3994 208.7414 0002195  88.9088 271.2359 14.34216829451949
IRIDIUM 113             
1 42803U 17039A   25245.02661014  .00000047  00000+0  97043-5 0  9993
2 42803  86.3914  82.6295 0001909  87.0161 273.1253 14.34217792429888
IRIDIUM 123             
1 42804U 17039B   25245.06808850  .00000025  00000+0  18525-5 0  9993
2 42804  86.3952 114.1093 0002229  94.3262 265.8189 14.34217966428650
IRIDIUM 120             
1 42805U 17039C   25245.02026255  .00000105  00000+0  30429-4 0  9996
2 42805  86.3902  82.4518 0002417  88.5174 271.6299 14.34217521429870
IRIDIUM 115             
1 42806U 17039D   25245.25693621  .00000250  00000+0  68232-4 0  9993
2 42806  86.4439  82.4420 0002574 102.2162 257.9327 14.43281046432735
IRIDIUM 118             
1 42807U 17039E   25245.09980157  .00000016  00000+0 -11872-5 0  9999
2 42807  86.3951 114.0950 0001791  84.0406 276.0994 14.34217586428658
IRIDIUM 117             
1 42808U 17039F   25245.04908115  .00000440  00000+0  14995-3 0  9996
2 42808  86.3951 114.0770 0002106  92.7580 267.3857 14.34216641428673
